start=new Date('2022-03-20T00:00:00.000Z').valueOf();
sats=[{"RA_OF_ASC_NODE":"22.0450","INCLINATION":"53.0541","REV_AT_EPOCH":"12183","EPOCH":"2022-03-19T07:49:09.761952","PERIAPSIS":"546.055","ARG_OF_PERICENTER":"60.8643","MEAN_MOTION_DOT":"0.00003253","MEAN_ANOMALY":"299.2514","GP_ID":"199149673","SEMIMAJOR_AXIS":"6925.348","OBJECT_ID":"2020-001E","TLE_LINE2":"2 44918  53.0541  22.0450 0001672  60.8643 299.2514 15.06400110121837","MEAN_ELEMENT_THEORY":"SGP4","APOAPSIS":"548.371","ELEMENT_SET_NO":"999","MEAN_MOTION":"15.06400110","LAUNCH_DATE":"2020-01-07","TLE_LINE1":"1 44918U 20001E   22078.32580743  .00003253  00000-0  23718-3 0  9997","NORAD_CAT_ID":"44918","ECCENTRICITY":"0.00016720","REF_FRAME":"TEME","SITE":"AFETR","EPHEMERIS_TYPE":"0","CENTER_NAME":"EARTH","TIME_SYSTEM":"UTC","BSTAR":"0.00023718000000","OBJECT_TYPE":"PAYLOAD","FILE":"3365744","RCS_SIZE":"LARGE","PERIOD":"95.592","MEAN_MOTION_DDOT":"0.0000000000000","DECAY_DATE":null,"COUNTRY_CODE":"US","OBJECT_NAME":"STARLINK-1099","CLASSIFICATION_TYPE":"U"},{"OBJECT_ID":"2020-001G","SEMIMAJOR_AXIS":"6925.345","GP_ID":"199183861","MEAN_ANOMALY":"299.8881","MEAN_MOTION_DOT":"0.00001394","PERIAPSIS":"546.041","EPOCH":"2022-03-19T20:54:42.605280","ARG_OF_PERICENTER":"60.2276","REV_AT_EPOCH":"12117","INCLINATION":"53.0566","RA_OF_ASC_NODE":"19.5976","DECAY_DATE":null,"MEAN_MOTION_DDOT":"0.0000000000000","COUNTRY_CODE":"US","OBJECT_NAME":"STARLINK-1102","CLASSIFICATION_TYPE":"U","PERIOD":"95.592","RCS_SIZE":"LARGE","FILE":"3366144","OBJECT_TYPE":"PAYLOAD","BSTAR":"0.00011247000000","TIME_SYSTEM":"UTC","CENTER_NAME":"EARTH","EPHEMERIS_TYPE":"0","SITE":"AFETR","REF_FRAME":"TEME","ECCENTRICITY":"0.00016880","TLE_LINE1":"1 44920U 20001G   22078.87132645  .00001394  00000-0  11247-3 0  9992","NORAD_CAT_ID":"44920","APOAPSIS":"548.379","ELEMENT_SET_NO":"999","LAUNCH_DATE":"2020-01-07","MEAN_MOTION":"15.06401233","MEAN_ELEMENT_THEORY":"SGP4","TLE_LINE2":"2 44920  53.0566  19.5976 0001688  60.2276 299.8881 15.06401233121171"},{"COUNTRY_CODE":"US","DECAY_DATE":null,"MEAN_MOTION_DDOT":"0.0000000000000","CLASSIFICATION_TYPE":"U","OBJECT_NAME":"STARLINK-1103","PERIOD":"95.591","FILE":"3366144","RCS_SIZE":"LARGE","OBJECT_TYPE":"PAYLOAD","BSTAR":"0.00011781000000","TIME_SYSTEM":"UTC","CENTER_NAME":"EARTH","EPHEMERIS_TYPE":"0","SITE":"AFETR","REF_FRAME":"TEME","ECCENTRICITY":"0.00016110","TLE_LINE1":"1 44921U 20001H   22078.82709581  .00001474  00000-0  11781-3 0  9999","NORAD_CAT_ID":"44921","ELEMENT_SET_NO":"999","APOAPSIS":"548.284","MEAN_MOTION":"15.06414644","LAUNCH_DATE":"2020-01-07","TLE_LINE2":"2 44921  53.0538  19.7836 0001611  71.7904 288.3260 15.06414644121140","MEAN_ELEMENT_THEORY":"SGP4","OBJECT_ID":"2020-001H","SEMIMAJOR_AXIS":"6925.304","GP_ID":"199184086","MEAN_ANOMALY":"288.3260","MEAN_MOTION_DOT":"0.00001474","PERIAPSIS":"546.053","EPOCH":"2022-03-19T19:51:01.077984","ARG_OF_PERICENTER":"71.7904","REV_AT_EPOCH":"12114","INCLINATION":"53.0538","RA_OF_ASC_NODE":"19.7836"},{"RA_OF_ASC_NODE":"19.6321","INCLINATION":"53.0546","REV_AT_EPOCH":"12117","EPOCH":"2022-03-19T20:38:47.473152","PERIAPSIS":"545.961","ARG_OF_PERICENTER":"54.6882","MEAN_MOTION_DOT":"0.00000870","MEAN_ANOMALY":"305.4272","GP_ID":"199182860","SEMIMAJOR_AXIS":"6925.323","OBJECT_ID":"2020-001J","TLE_LINE2":"2 44922  53.0546  19.6321 0001772  54.6882 305.4272 15.06408398121177","MEAN_ELEMENT_THEORY":"SGP4","ELEMENT_SET_NO":"999","APOAPSIS":"548.415","LAUNCH_DATE":"2020-01-07","MEAN_MOTION":"15.06408398","TLE_LINE1":"1 44922U 20001J   22078.86027168  .00000870  00000-0  77277-4 0  9990","NORAD_CAT_ID":"44922","ECCENTRICITY":"0.00017720","REF_FRAME":"TEME","SITE":"AFETR","EPHEMERIS_TYPE":"0","CENTER_NAME":"EARTH","TIME_SYSTEM":"UTC","BSTAR":"0.00007727700000","OBJECT_TYPE":"PAYLOAD","FILE":"3366144","RCS_SIZE":"LARGE","PERIOD":"95.592","DECAY_DATE":null,"COUNTRY_CODE":"US","MEAN_MOTION_DDOT":"0.0000000000000","OBJECT_NAME":"STARLINK-1104","CLASSIFICATION_TYPE":"U"},{"APOAPSIS":"548.253","ELEMENT_SET_NO":"999","MEAN_MOTION":"15.06417887","LAUNCH_DATE":"2020-01-07","MEAN_ELEMENT_THEORY":"SGP4","TLE_LINE2":"2 44923  53.0558  22.5058 0001580  60.1994 299.9152 15.06417887121070","TLE_LINE1":"1 44923U 20001K   22078.22261184  .00006503  00000-0  45482-3 0  9990","NORAD_CAT_ID":"44923","REF_FRAME":"TEME","ECCENTRICITY":"0.00015800","EPHEMERIS_TYPE":"0","SITE":"AFETR","TIME_SYSTEM":"UTC","CENTER_NAME":"EARTH","BSTAR":"0.00045482000000","OBJECT_TYPE":"PAYLOAD","FILE":"3366033","RCS_SIZE":"LARGE","DECAY_DATE":null,"MEAN_MOTION_DDOT":"0.0000000000000","COUNTRY_CODE":"US","CLASSIFICATION_TYPE":"U","OBJECT_NAME":"STARLINK-1106","PERIOD":"95.591","RA_OF_ASC_NODE":"22.5058","REV_AT_EPOCH":"12107","INCLINATION":"53.0558","MEAN_MOTION_DOT":"0.00006503","PERIAPSIS":"546.065","EPOCH":"2022-03-19T05:20:33.662976","ARG_OF_PERICENTER":"60.1994","MEAN_ANOMALY":"299.9152","GP_ID":"199161767","OBJECT_ID":"2020-001K","SEMIMAJOR_AXIS":"6925.294"},{"RCS_SIZE":"LARGE","FILE":"3365744","OBJECT_TYPE":"PAYLOAD","CLASSIFICATION_TYPE":"U","OBJECT_NAME":"STARLINK-1111","COUNTRY_CODE":"US","DECAY_DATE":null,"MEAN_MOTION_DDOT":"0.0000000000000","PERIOD":"95.592","TIME_SYSTEM":"UTC","CENTER_NAME":"EARTH","BSTAR":"0.00017820000000","REF_FRAME":"TEME","ECCENTRICITY":"0.00016610","EPHEMERIS_TYPE":"0","SITE":"AFETR","MEAN_MOTION":"15.06400884","LAUNCH_DATE":"2020-01-07","ELEMENT_SET_NO":"999","APOAPSIS":"548.361","TLE_LINE2":"2 44924  53.0559  21.9635 0001661  63.0446 297.0713 15.06400884121093","MEAN_ELEMENT_THEORY":"SGP4","NORAD_CAT_ID":"44924","TLE_LINE1":"1 44924U 20001L   22078.34423995  .00002374  00000-0  17820-3 0  9991","GP_ID":"199149424","OBJECT_ID":"2020-001L","SEMIMAJOR_AXIS":"6925.346","MEAN_MOTION_DOT":"0.00002374","ARG_OF_PERICENTER":"63.0446","PERIAPSIS":"546.061","EPOCH":"2022-03-19T08:15:42.331680","MEAN_ANOMALY":"297.0713","RA_OF_ASC_NODE":"21.9635","REV_AT_EPOCH":"12109","INCLINATION":"53.0559"},{"PERIAPSIS":"546.049","EPOCH":"2022-03-19T08:36:56.764512","ARG_OF_PERICENTER":"54.1907","MEAN_MOTION_DOT":"0.00003596","MEAN_ANOMALY":"305.9234","RA_OF_ASC_NODE":"21.8877","INCLINATION":"53.0551","REV_AT_EPOCH":"12109","GP_ID":"199148172","SEMIMAJOR_AXIS":"6925.315","OBJECT_ID":"2020-001M","ECCENTRICITY":"0.00016330","REF_FRAME":"TEME","SITE":"AFETR","EPHEMERIS_TYPE":"0","MEAN_ELEMENT_THEORY":"SGP4","TLE_LINE2":"2 44925  53.0551  21.8877 0001633  54.1907 305.9234 15.06410865121092","ELEMENT_SET_NO":"999","APOAPSIS":"548.311","LAUNCH_DATE":"2020-01-07","MEAN_MOTION":"15.06410865","TLE_LINE1":"1 44925U 20001M   22078.35899033  .00003596  00000-0  26010-3 0  9991","NORAD_CAT_ID":"44925","FILE":"3365744","OBJECT_TYPE":"PAYLOAD","RCS_SIZE":"LARGE","PERIOD":"95.591","COUNTRY_CODE":"US","DECAY_DATE":null,"MEAN_MOTION_DDOT":"0.0000000000000","OBJECT_NAME":"STARLINK-1112","CLASSIFICATION_TYPE":"U","CENTER_NAME":"EARTH","TIME_SYSTEM":"UTC","BSTAR":"0.00026010000000"},{"GP_ID":"199183361","SEMIMAJOR_AXIS":"6927.796","OBJECT_ID":"2020-001N","EPOCH":"2022-03-19T20:24:39.980736","PERIAPSIS":"548.477","ARG_OF_PERICENTER":"63.9916","MEAN_MOTION_DOT":"0.00002801","MEAN_ANOMALY":"296.1248","RA_OF_ASC_NODE":"19.6933","INCLINATION":"53.0028","REV_AT_EPOCH":"12188","RCS_SIZE":"LARGE","FILE":"3366144","OBJECT_TYPE":"PAYLOAD","PERIOD":"95.643","COUNTRY_CODE":"US","DECAY_DATE":null,"MEAN_MOTION_DDOT":"0.0000000000000","OBJECT_NAME":"STARLINK-1113","CLASSIFICATION_TYPE":"U","CENTER_NAME":"EARTH","TIME_SYSTEM":"UTC","BSTAR":"0.00021124000000","ECCENTRICITY":"0.00017080","REF_FRAME":"TEME","SITE":"AFETR","EPHEMERIS_TYPE":"0","MEAN_ELEMENT_THEORY":"SGP4","TLE_LINE2":"2 44926  53.0028  19.6933 0001708  63.9916 296.1248 15.05601922121889","APOAPSIS":"550.844","ELEMENT_SET_NO":"999","MEAN_MOTION":"15.05601922","LAUNCH_DATE":"2020-01-07","TLE_LINE1":"1 44926U 20001N   22078.85046274  .00002801  00000-0  21124-3 0  9997","NORAD_CAT_ID":"44926"},{"ECCENTRICITY":"0.00019190","REF_FRAME":"TEME","SITE":"AFETR","EPHEMERIS_TYPE":"0","TLE_LINE2":"2 44927  53.0545  19.7512 0001919  59.3189 300.7989 15.06415771121175","MEAN_ELEMENT_THEORY":"SGP4","LAUNCH_DATE":"2020-01-07","MEAN_MOTION":"15.06415771","ELEMENT_SET_NO":"999","APOAPSIS":"548.494","NORAD_CAT_ID":"44927","TLE_LINE1":"1 44927U 20001P   22078.83447540  .00005101  00000-0  36097-3 0  9998","OBJECT_TYPE":"PAYLOAD","FILE":"3366144","RCS_SIZE":"LARGE","PERIOD":"95.591","CLASSIFICATION_TYPE":"U","OBJECT_NAME":"STARLINK-1114","DECAY_DATE":null,"COUNTRY_CODE":"US","MEAN_MOTION_DDOT":"0.0000000000000","CENTER_NAME":"EARTH","TIME_SYSTEM":"UTC","BSTAR":"0.00036097000000","ARG_OF_PERICENTER":"59.3189","EPOCH":"2022-03-19T20:01:38.674560","PERIAPSIS":"545.836","MEAN_MOTION_DOT":"0.00005101","MEAN_ANOMALY":"300.7989","RA_OF_ASC_NODE":"19.7512","INCLINATION":"53.0545","REV_AT_EPOCH":"12117","GP_ID":"199183611","SEMIMAJOR_AXIS":"6925.300","OBJECT_ID":"2020-001P"},{"MEAN_ANOMALY":"306.8001","ARG_OF_PERICENTER":"53.3155","PERIAPSIS":"545.939","EPOCH":"2022-03-19T19:56:19.454208","MEAN_MOTION_DOT":"-0.00000731","INCLINATION":"53.0546","REV_AT_EPOCH":"12117","RA_OF_ASC_NODE":"19.7784","SEMIMAJOR_AXIS":"6925.335","OBJECT_ID":"2020-001Q","GP_ID":"199183862","SITE":"AFETR","EPHEMERIS_TYPE":"0","ECCENTRICITY":"0.00018210","REF_FRAME":"TEME","NORAD_CAT_ID":"44928","TLE_LINE1":"1 44928U 20001Q   22078.83078072 -.00000731  00000-0 -30147-4 0  9996","MEAN_ELEMENT_THEORY":"SGP4","TLE_LINE2":"2 44928  53.0546  19.7784 0001821  53.3155 306.8001 15.06404413121170","LAUNCH_DATE":"2020-01-07","MEAN_MOTION":"15.06404413","ELEMENT_SET_NO":"999","APOAPSIS":"548.461","PERIOD":"95.592","CLASSIFICATION_TYPE":"U","OBJECT_NAME":"STARLINK-1119","DECAY_DATE":null,"MEAN_MOTION_DDOT":"0.0000000000000","COUNTRY_CODE":"US","OBJECT_TYPE":"PAYLOAD","FILE":"3366144","RCS_SIZE":"LARGE","BSTAR":"-0.00003014700000","CENTER_NAME":"EARTH","TIME_SYSTEM":"UTC"}];
